[{"OBJECT_NAME":"STARLINK-4188","OBJECT_ID":"2022-062P","EPOCH":"2026-03-09T22:03:55.161216","MEAN_MOTION":15.08823467,"ECCENTRICITY":0.00018408,"INCLINATION":53.2178,"RA_OF_ASC_NODE":33.0875,"ARG_OF_PERICENTER":100.4096,"MEAN_ANOMALY":259.7103,"EPHEMERIS_TYPE":0,"CLASSIFICATION_TYPE":"U","NORAD_CAT_ID":52843,"ELEMENT_SET_NO":999,"REV_AT_EPOCH":20582,"BSTAR":8.4347034e-5,"MEAN_MOTION_DOT":1.054e-5,"MEAN_MOTION_DDOT":0},{"OBJECT_NAME":"BREEZE-M DEB [TANK]","OBJECT_ID":"2023-031C","EPOCH":"2026-03-09T06:40:57.647136","MEAN_MOTION":4.60663987,"ECCENTRICITY":0.56825235,"INCLINATION":48.6764,"RA_OF_ASC_NODE":89.5286,"ARG_OF_PERICENTER":29.4967,"MEAN_ANOMALY":353.1583,"EPHEMERIS_TYPE":0,"CLASSIFICATION_TYPE":"U","NORAD_CAT_ID":55843,"ELEMENT_SET_NO":999,"REV_AT_EPOCH":2302,"BSTAR":0.0014951197,"MEAN_MOTION_DOT":0.00043359,"MEAN_MOTION_DDOT":0}]
